OBJECT_NAME,OBJECT_ID,EPOCH,MEAN_MOTION,ECCENTRICITY,INCLINATION,RA_OF_ASC_NODE,ARG_OF_PERICENTER,MEAN_ANOMALY,EPHEMERIS_TYPE,CLASSIFICATION_TYPE,NORAD_CAT_ID,ELEMENT_SET_NO,REV_AT_EPOCH,BSTAR,MEAN_MOTION_DOT,MEAN_MOTION_DDOT
QIANFAN-97,2025-233G,2026-06-05T01:57:29.217024,13.51009614,.00019257,89.0017,44.4116,71.8251,288.3110,0,U,66039,999,3155,.2010654E-3,.142E-5,0
QIANFAN-98,2025-233H,2026-06-05T02:09:18.167904,13.51009711,.00020646,89.0006,44.1428,88.9891,271.1497,0,U,66040,999,3169,.19841107E-3,.14E-5,0
QIANFAN-99,2025-233J,2026-06-05T02:15:12.232512,13.51009484,.00019402,89.0018,44.4141,85.2175,274.9198,0,U,66041,999,3155,.21019238E-3,.148E-5,0
QIANFAN-100,2025-233K,2026-06-05T02:03:22.505760,13.51012444,.00019572,89.0028,44.3406,71.5411,288.5953,0,U,66042,999,3160,.20806609E-3,.146E-5,0
QIANFAN-101,2025-233L,2026-06-05T02:11:25.397088,14.26800491,.00149479,89.0012,41.9571,174.7632,185.3721,0,U,66043,999,3290,.12551683E-3,.319E-5,0
QIANFAN-102,2025-233M,2026-06-05T06:06:19.037664,13.51009524,.00019897,89.0014,44.3078,77.2981,282.8393,0,U,66044,999,3162,.18907898E-3,.134E-5,0
QIANFAN-103,2025-233N,2026-06-05T06:12:16.329312,13.51010400,.00019688,89.0016,44.4022,71.1562,288.9802,0,U,66045,999,3157,.18725955E-3,.133E-5,0
QIANFAN-104,2025-233P,2026-06-05T06:18:10.329984,13.51012699,.00020924,89.0022,44.3034,77.8365,282.3020,0,U,66046,999,3162,.19399951E-3,.137E-5,0
QIANFAN-105,2025-233Q,2026-06-04T18:03:27.274464,13.51012078,.00018705,89.0035,44.1964,74.8783,285.2575,0,U,66047,999,3166,.22103745E-3,.155E-5,0
QIANFAN-106,2025-233R,2026-06-04T17:57:35.647200,13.51009544,.0002012,89.0004,44.4135,86.7924,273.3457,0,U,66048,999,3150,.20728E-3,.146E-5,0
QIANFAN-107,2025-233S,2026-06-04T18:09:23.692608,13.51008894,.00019794,89.0020,44.4432,72.3509,287.7858,0,U,66049,999,3151,.22369401E-3,.156E-5,0
QIANFAN-108,2025-233T,2026-06-05T01:21:56.787264,13.51010089,.00020566,89.0013,44.4015,84.6357,275.5029,0,U,66050,999,3155,.21067541E-3,.148E-5,0
2025-234B,2025-234B,2026-06-05T02:12:49.809888,15.20916651,.00124427,97.4762,225.4192,131.8988,228.3311,0,U,66054,999,3480,.254666E-3,.5575E-4,0
2025-234C,2025-234C,2026-06-05T01:44:01.041792,15.24033742,.00144455,97.4258,224.5736,194.6319,165.4502,0,U,66055,999,3484,.21805979E-3,.5229E-4,0
2025-234D,2025-234D,2026-06-05T02:20:54.649536,15.21159413,.00022616,97.4242,224.1799,141.5618,218.5780,0,U,66056,999,3481,.6673909E-3,.14818E-3,0
STARLINK-35552,2025-235A,2026-06-04T18:18:55.548288,15.34419890,.0000986,53.1578,197.1758,77.6169,282.4943,0,U,66058,999,3630,.66046E-3,.22018E-3,0
STARLINK-35560,2025-235B,2026-06-03T07:57:27.898560,15.30217826,.0001909,53.1575,207.4757,169.5197,190.5844,0,U,66059,999,3603,.11277297E-2,.33209E-3,0
STARLINK-35558,2025-235C,2026-06-04T06:32:12.713568,15.30206836,.00011046,53.1562,203.3897,52.9103,307.1999,0,U,66060,999,3617,.60971414E-3,.17746E-3,0
STARLINK-35566,2025-235D,2026-06-05T06:31:42.922848,15.30228332,.00011997,53.1559,198.2506,132.4508,227.6594,0,U,66061,999,3633,.6944474E-3,.20283E-3,0
STARLINK-35421,2025-235E,2026-06-05T07:18:49.853088,15.30251257,.0002676,53.1580,198.4572,5.8340,354.2691,0,U,66062,999,3633,.56808042E-3,.1653E-3,0
STARLINK-35562,2025-235F,2026-06-03T10:21:40.165632,15.30213854,.0000751,53.1562,207.3846,106.7312,253.3772,0,U,66063,999,3604,.64944151E-3,.18933E-3,0
STARLINK-35542,2025-235G,2026-06-05T07:21:52.345440,15.30198417,.00027694,53.1585,198.4714,20.5979,339.5133,0,U,66064,999,3633,.56367792E-3,.16372E-3,0
STARLINK-35375,2025-235H,2026-06-03T10:18:37.963584,15.30211658,.00010573,53.1565,207.3724,63.1664,296.9445,0,U,66065,999,3604,.66481005E-3,.19389E-3,0
STARLINK-35179,2025-235J,2026-06-03T10:00:24.299424,15.30220946,.00011711,53.1567,207.2955,63.4720,296.6401,0,U,66066,999,3604,.61987742E-3,.18056E-3,0
STARLINK-35401,2025-235K,2026-06-03T12:50:15.251136,15.30179825,.00034691,53.1588,206.6066,3.4288,356.6736,0,U,66067,999,3603,.80629716E-3,.23584E-3,0
STARLINK-35422,2025-235L,2026-06-03T12:30:31.012128,15.30163102,.00011079,53.1558,206.5190,62.0118,298.0995,0,U,66068,999,3603,.59312378E-3,.17228E-3,0
STARLINK-35279,2025-235M,2026-06-05T06:40:50.544192,15.30224512,.00009252,53.1568,198.2892,104.8410,255.2694,0,U,66069,999,3633,.62620098E-3,.18247E-3,0
STARLINK-35295,2025-235N,2026-06-04T17:33:36.991296,15.30211561,.00012131,53.1574,201.2738,65.7213,294.3914,0,U,66070,999,3624,.72445833E-3,.21166E-3,0
STARLINK-35323,2025-235P,2026-06-05T06:22:35.756832,15.30234487,.00011219,53.1562,198.2099,115.3383,244.7734,0,U,66071,999,3633,.71839315E-3,.21E-3,0
STARLINK-35299,2025-235Q,2026-06-03T17:40:01.986240,15.30190404,.00010086,53.1584,205.7306,86.1117,273.9999,0,U,66072,999,3609,.10366262E-2,.30459E-3,0
