QIANFAN-97              
1 66039U 25233G   26156.08158816  .00000142  00000+0  20107-3 0  9995
2 66039  89.0017  44.4116 0001925  71.8251 288.3110 13.51009614 31559
QIANFAN-98              
1 66040U 25233H   26156.08979361  .00000140  00000+0  19841-3 0  9994
2 66040  89.0006  44.1428 0002064  88.9891 271.1497 13.51009711 31697
QIANFAN-99              
1 66041U 25233J   26156.09389158  .00000148  00000+0  21019-3 0  9993
2 66041  89.0018  44.4141 0001940  85.2175 274.9198 13.51009484 31554
QIANFAN-100             
1 66042U 25233K   26156.08567715  .00000146  00000+0  20807-3 0  9992
2 66042  89.0028  44.3406 0001957  71.5411 288.5953 13.51012444 31604
QIANFAN-101             
1 66043U 25233L   26156.09126617  .00000319  00000+0  12552-3 0  9996
2 66043  89.0012  41.9571 0014947 174.7632 185.3721 14.26800491 32909
QIANFAN-102             
1 66044U 25233M   26156.25438701  .00000134  00000+0  18908-3 0  9991
2 66044  89.0014  44.3078 0001989  77.2981 282.8393 13.51009524 31628
QIANFAN-103             
1 66045U 25233N   26156.25852233  .00000133  00000+0  18726-3 0  9999
2 66045  89.0016  44.4022 0001968  71.1562 288.9802 13.51010400 31577
QIANFAN-104             
1 66046U 25233P   26156.26261956  .00000137  00000+0  19400-3 0  9991
2 66046  89.0022  44.3034 0002092  77.8365 282.3020 13.51012699 31628
QIANFAN-105             
1 66047U 25233Q   26155.75239901  .00000155  00000+0  22104-3 0  9995
2 66047  89.0035  44.1964 0001870  74.8783 285.2575 13.51012078 31669
QIANFAN-106             
1 66048U 25233R   26155.74832925  .00000146  00000+0  20728-3 0  9990
2 66048  89.0004  44.4135 0002012  86.7924 273.3457 13.51009544 31501
QIANFAN-107             
1 66049U 25233S   26155.75652422  .00000156  00000+0  22369-3 0  9998
2 66049  89.0020  44.4432 0001979  72.3509 287.7858 13.51008894 31513
QIANFAN-108             
1 66050U 25233T   26156.05690726  .00000148  00000+0  21068-3 0  9999
2 66050  89.0013  44.4015 0002056  84.6357 275.5029 13.51010089 31556
2025-234B               
1 66054U 25234B   26156.09224317  .00005575  00000+0  25467-3 0  9993
2 66054  97.4762 225.4192 0012442 131.8988 228.3311 15.20916651 34805
2025-234C               
1 66055U 25234C   26156.07223428  .00005229  00000+0  21806-3 0  9993
2 66055  97.4258 224.5736 0014445 194.6319 165.4502 15.24033742 34842
2025-234D               
1 66056U 25234D   26156.09785474  .00014818  00000+0  66739-3 0  9998
2 66056  97.4242 224.1799 0002261 141.5618 218.5780 15.21159413 34813
STARLINK-35552          
1 66058U 25235A   26155.76314292  .00022018  00000+0  66046-3 0  9992
2 66058  53.1578 197.1758 0000986  77.6169 282.4943 15.34419890 36301
STARLINK-35560          
1 66059U 25235B   26154.33157290  .00033209  00000+0  11277-2 0  9997
2 66059  53.1575 207.4757 0001909 169.5197 190.5844 15.30217826 36031
STARLINK-35558          
1 66060U 25235C   26155.27236937  .00017746  00000+0  60971-3 0  9993
2 66060  53.1562 203.3897 0001104  52.9103 307.1999 15.30206836 36179
STARLINK-35566          
1 66061U 25235D   26156.27202457  .00020283  00000+0  69445-3 0  9990
2 66061  53.1559 198.2506 0001199 132.4508 227.6594 15.30228332 36332
STARLINK-35421          
1 66062U 25235E   26156.30474367  .00016530  00000+0  56808-3 0  9995
2 66062  53.1580 198.4572 0002676   5.8340 354.2691 15.30251257 36337
STARLINK-35562          
1 66063U 25235F   26154.43171488  .00018933  00000+0  64944-3 0  9995
2 66063  53.1562 207.3846 0000751 106.7312 253.3772 15.30213854 36042
STARLINK-35542          
1 66064U 25235G   26156.30685585  .00016372  00000+0  56368-3 0  9998
2 66064  53.1585 198.4714 0002769  20.5979 339.5133 15.30198417 36332
STARLINK-35375          
1 66065U 25235H   26154.42960606  .00019389  00000+0  66481-3 0  9998
2 66065  53.1565 207.3724 0001057  63.1664 296.9445 15.30211658 36048
STARLINK-35179          
1 66066U 25235J   26154.41694791  .00018056  00000+0  61988-3 0  9994
2 66066  53.1567 207.2955 0001171  63.4720 296.6401 15.30220946 36048
STARLINK-35401          
1 66067U 25235K   26154.53489874  .00023584  00000+0  80630-3 0  9999
2 66067  53.1588 206.6066 0003469   3.4288 356.6736 15.30179825 36039
STARLINK-35422          
1 66068U 25235L   26154.52119227  .00017228  00000+0  59312-3 0  9992
2 66068  53.1558 206.5190 0001107  62.0118 298.0995 15.30163102 36031
STARLINK-35279          
1 66069U 25235M   26156.27836278  .00018247  00000+0  62620-3 0  9997
2 66069  53.1568 198.2892 0000925 104.8410 255.2694 15.30224512 36333
STARLINK-35295          
1 66070U 25235N   26155.73167814  .00021166  00000+0  72446-3 0  9993
2 66070  53.1574 201.2738 0001213  65.7213 294.3914 15.30211561 36242
STARLINK-35323          
1 66071U 25235P   26156.26569163  .00021000  00000+0  71839-3 0  9998
2 66071  53.1562 198.2099 0001121 115.3383 244.7734 15.30234487 36334
STARLINK-35299          
1 66072U 25235Q   26154.73613410  .00030459  00000+0  10366-2 0  9999
2 66072  53.1584 205.7306 0001008  86.1117 273.9999 15.30190404 36098
